03284   13.12  0.15 K243V 112.00417  261.50720   72.45630    6.65164  0.3823280  0.21386999   2.7692967    MPO840862        27 1953-2024 0.57 M-v 3Ek MPCLINUX   0400   (3284) Niebuhr            20240503
03285   12.36  0.15 K24AH  66.09813  169.40306  246.05302   20.63221  0.2176260  0.24568528   2.5247398    E2024-F74        28 1951-2024 0.32 M-v 3Ek MPCLINUX   0400   (3285) Ruth Wolfe         20240321
03286   12.84  0.15 K243V  73.17648   77.59113  107.38501   13.42796  0.1037066  0.23021278   2.6366335    MPO840862        28 1978-2024 0.55 M-v 3Ek MPCLINUX   0400   (3286) Anatoliya          20240707
03287   14.37  0.15 K243V 200.72232   95.67323  213.23149   12.08350  0.3006901  0.27104119   2.3647170    MPO840862        24 1981-2024 0.48 M-v 3Ek MPCLINUX   0405   (3287) Olmstead           20240404
03288   15.35  0.15 K24AH 241.11147  349.34591  218.60992    5.92902  0.4548688  0.33953935   2.0348980    E2024-CI1        27 1982-2023 0.69 M-v 3Ek MPCLINUX   0404   (3288) Seleucus           20231207
03289   14.06  0.15 K243V  52.37505  352.18552   46.32197    1.75462  0.2076642  0.27775507   2.3264553    MPO840862        26 1934-2024 0.56 M-v 3Ek MPCLINUX   0400   (3289) Mitani             20240501
03290   12.22  0.15 K243V 322.39804  108.58304   75.05986    2.77255  0.1312914  0.12538879   3.9533346    MPO840862        35 1954-2024 0.62 M-v 3Ek MPCLINUX   0408   (3290) Azabu              20240602
03291   12.91  0.15 K243V 235.03669  161.74362  151.23853    2.00735  0.1011504  0.17643856   3.1482827    MPO840863        31 1953-2024 0.62 M-v 3Ek MPCLINUX   0400   (3291) Dunlap             20240627
03292   13.21  0.15 K243V  72.81674   17.76914   36.85539    1.57170  0.1689548  0.17500308   3.1654753    MPO840863        30 1954-2024 0.59 M-v 3Ek MPCLINUX   0400   (3292) Sather             20240527
03293   14.17  0.15 K24AH 224.02443  207.88526    9.47109    2.13468  0.1378890  0.26496560   2.4007285    E2024-B03        27 1960-2024 0.59 M-v 3Ek MPCLINUX   0400   (3293) Rontaylor          20240115
03294   13.04  0.15 K243V 318.90306  157.63546    6.91577    6.96689  0.0686418  0.22251871   2.6970668    MPO840863        29 1958-2024 0.46 M-v 3Ek MPCLINUX   0400   (3294) Carlvesely         20240517
03295   13.05  0.15 K243V   1.47057  218.75662  168.16362    8.80245  0.2555048  0.22275552   2.6951549    MPO840863        31 1950-2024 0.56 M-v 3Ek MPCLINUX   0400   (3295) Murakami           20240105
03296   12.36  0.15 K243V  61.85171  269.50932  112.81655   13.91390  0.1970075  0.22801334   2.6535618    MPO840863        28 1971-2024 0.46 M-v 3Ek MPCLINUX   0400   (3296) Bosque Alegre      20240508
03297   12.53  0.15 K243V  69.69732  288.03262  112.25769    2.37516  0.1713009  0.17748473   3.1358989    MPO840863        29 1978-2024 0.55 M-v 3Ek MPCLINUX   0400   (3297) Hong Kong          20240521
03298   13.92  0.15 K24AH 170.20347   51.44796  284.99528    2.57016  0.1933341  0.27316729   2.3524311    E2024-J40        29 1950-2024 0.57 M-v 3Ek MPCLINUX   0400   (3298) Massandra          20240502
03299   13.61  0.15 K243V 112.07290  243.38746  251.59110    5.47204  0.0779362  0.28618499   2.2805424    MPO840863        29 1982-2024 0.57 M-v 3Ek MPCLINUX   0400   (3299) Hall               20240707
03300   10.60  0.15 K243V 346.75226  263.64450   27.23987   18.74012  0.2013892  0.17483669   3.1674833    MPO840863        37 1928-2024 0.59 M-v 3Ek MPCLINUX   0400   (3300) McGlasson          20240713
03301   13.15  0.15 K24AH 259.89719  118.33720  136.83278    5.06766  0.1531925  0.29536300   2.2330511    E2024-G95        28 1925-2024 0.47 M-v 3Ek MPCLINUX   0400   (3301) Jansje             20240407
03302   12.87  0.15 K24AH 126.60406  170.40242  154.26193    3.38939  0.0980872  0.25644156   2.4536377    E2024-DC2        31 1954-2024 0.49 M-v 3Ek MPCLINUX   0400   (3302) Schliemann         20240222
03303   12.18  0.15 K243V 253.90402  278.30150   52.11034    2.75923  0.0717638  0.19981740   2.8976584    MPO840863        33 1954-2024 0.64 M-v 3Ek MPCLINUX   0400   (3303) Merta              20240711
03304   13.67  0.15 K243V 170.54817   58.46095  320.28670    2.20098  0.2785736  0.18461602   3.0546149    MPO840863        30 1978-2024 0.64 M-v 3Ek MPCLINUX   0400   (3304) Pearce             20240605
03305   12.52  0.15 K243V  64.28709  240.50927   32.12560   13.43346  0.1541467  0.23483071   2.6019530    MPO840863        28 1968-2024 0.50 M-v 3Ek MPCLINUX   0400   (3305) Ceadams            20240712
03306   13.18  0.15 K24AH 221.27325   64.84620  213.28219    4.52788  0.1454776  0.29262857   2.2469405    E2024-G77        32 1951-2024 0.38 M-v 3Ek MPCLINUX   0400   (3306) Byron              20240405
03307   14.04  0.15 K24AH  64.56493  146.16698  263.12333    6.37760  0.0960097  0.29030870   2.2588949    E2024-EC3        27 1977-2024 0.55 M-v 3Ek MPCLINUX   0400   (3307) Athabasca          20240216
03308   11.68  0.15 K243V 328.51849  273.13567  172.30687   23.62272  0.1876544  0.17668666   3.1453347    MPO840863        30 1953-2024 0.42 M-v 3Ek MPCLINUX   0400   (3308) Ferreri            20240202
03309   13.73  0.15 K243V 321.58200  218.59033   29.76591   21.13631  0.0536369  0.40222149   1.8175758    MPO840863        22 1982-2024 0.68 M-v 3Ek MPCLINUX   0406   (3309) Brorfelde          20240710
03310   11.01  0.15 K243V  31.24143  132.93553  101.34796   11.09645  0.0593351  0.18879543   3.0093664    MPO840863        37 1930-2024 0.50 M-v 3Ek MPCLINUX   0400   (3310) Patsy              20240707
03311   12.42  0.15 K243V 262.07931   10.00458  157.37919    0.93283  0.0374770  0.21123440   2.7922842    MPO840863        35 1954-2024 0.51 M-v 3Ek MPCLINUX   0400   (3311) Podobed            20240322
03312   11.75  0.15 K243V 224.86765  128.92731  214.30542    9.65452  0.1197809  0.18918725   3.0052099    MPO840863        35 1953-2024 0.54 M-v 3Ek MPCLINUX   0400   (3312) Pedersen           20240709
03313   12.34  0.15 K243V 337.12532  346.07536  272.30513   11.39612  0.1311116  0.22779421   2.6552633    MPO840863        30 1972-2024 0.65 M-v 3Ek MPCLINUX   0400   (3313) Mendel             20240710
03314   13.13  0.15 K243V 145.42802   45.78760  359.40820    7.40535  0.0446174  0.29831299   2.2183051    MPO840863        35 1928-2024 0.51 M-v 3Ek MPCLINUX   0400   (3314) Beals              20240711
03315   12.57  0.15 K243V  86.38050   57.97223  146.61974   10.04026  0.0859490  0.22970195   2.6405411    MPO840863        30 1950-2024 0.68 M-v 3Ek MPCLINUX   0400   (3315) Chant              20240712
03316   12.09  0.15 K243V  84.80324  353.51508  200.24669    8.40992  0.1047127  0.17961064   3.1111051    MPO840863        30 1951-2024 0.66 M-v 3Ek MPCLINUX   0400   (3316) Herzberg           20240712
03317    8.43  0.15 K243V  66.40147  151.07910  135.89861   27.85341  0.1286325  0.08242627   5.2290840    MPO840863        33 1963-2024 0.65 M-v 3Ek MPCLINUX   0409   (3317) Paris              20240709
03318   11.08  0.15 K243V 211.64017   47.74613  109.06001   11.57230  0.0482173  0.18892169   3.0080254    MPO840863        35 1943-2024 0.59 M-v 3Ek MPCLINUX   0400   (3318) Blixen             20240712
03319   12.10  0.15 K243V 258.50329  119.91090  269.66356    3.83880  0.1511907  0.17473945   3.1686583    MPO840863        32 1965-2024 0.70 M-v 3Ek MPCLINUX   0400   (3319) Kibi               20240707
03320   13.33  0.15 K243V 115.73089  346.15318  218.08055    4.06451  0.0487409  0.25573198   2.4581744    MPO840863        29 1978-2024 0.57 M-v 3Ek MPCLINUX   0400   (3320) Namba              20240712
03321   13.04  0.15 K243V 344.21951  202.67327  162.49883    7.32259  0.1984244  0.24260169   2.5460886    MPO840863        29 1951-2024 0.49 M-v 3Ek MPCLINUX   0400   (3321) Dasha              20240712
03322   12.98  0.15 K24AH  46.35298  223.91369  250.68730   23.50038  0.2165813  0.26653501   2.3912953    E2024-H72        26 1975-2024 0.38 M-v 3Ek MPCLINUX   0407   (3322) Lidiya             20240424
03323   13.72  0.15 K243V 285.76403   24.30445   21.29879    0.70650  0.1847515  0.24043270   2.5613781    MPO840863        32 1975-2024 0.72 M-v 3Ek MPCLINUX   0400   (3323) Turgenev           20240712
03324   12.11  0.15 K243V  95.55346  183.70690  316.72265   10.77088  0.0264333  0.22221980   2.6994848    MPO840863        30 1959-2024 0.56 M-v 3Ek MPCLINUX   0400   (3324) Avsyuk             20240710
03325   11.69  0.15 K243V 103.06665   85.05023   46.17161   22.19990  0.0189200  0.17334716   3.1856023    MPO840863        27 1958-2024 0.55 M-v 3Ek MPCLINUX   0400   (3325) TARDIS             20240710
03326   13.32  0.15 K24AH 213.49802  280.81189    4.26446    3.37685  0.1739050  0.27059253   2.3673302    E2024-G95        34 1946-2024 0.57 M-v 3Ek MPCLINUX   0400   (3326) Agafonikov         20240407
03327   11.91  0.15 K243V 319.55785  242.43208   69.73395    1.55605  0.0910092  0.17401820   3.1774077    MPO840863        43 1923-2024 0.69 M-v 3Ek MPCLINUX   0400   (3327) Campins            20240712
03328   11.62  0.15 K243V 145.79311  274.21868   60.27989   11.45774  0.1118881  0.18841027   3.0134662    MPO840863        30 1949-2024 0.45 M-v 3Ek MPCLINUX   0400   (3328) Interposita        20240604
03329   11.75  0.15 K243V  82.88146   69.97705   11.63864   10.41450  0.0812590  0.18991084   2.9975715    MPO840863        29 1959-2024 0.59 M-v 3Ek MPCLINUX   0400   (3329) Golay              20240708
03330   11.52  0.15 K243V 357.54406  306.54177    9.80086   10.26318  0.2006545  0.17601491   3.1533323    MPO840863        31 1933-2024 0.60 M-v 3Ek MPCLINUX   0400   (3330) Gantrisch          20240712
03331   13.63  0.15 K243V 165.18463  305.99676  168.30818    3.57113  0.0878597  0.26185974   2.4196742    MPO840863        31 1972-2024 0.59 M-v 3Ek MPCLINUX   0400   (3331) Kvistaberg         20240711
03332   11.61  0.15 K24AH  40.23928  277.30325  138.59193   14.84925  0.0863471  0.24277247   2.5448944    E2024-E02        29 1936-2024 0.45 M-v 3Ek MPCLINUX   0400   (3332) Raksha             20240202
